0 PSLV DEB
1 28850U 01049PC  13283.23582314  .00005529  00000-0  56163-3 0  6501
2 28850 097.6048 280.2636 0030850 111.8903 248.6053 14.90851294501541
0 PSLV DEB
1 28850U 01049PC  13287.19566423  .00007172  00000-0  72462-3 0  6521
2 28850 097.6082 284.0844 0032954 099.0546 261.5188 14.90914858502134
0 PSLV DEB
1 28850U 01049PC  13288.80638562  .00007256  00000-0  73259-3 0  6533
2 28850 097.6084 285.6378 0033006 094.0620 266.4491 14.90939123502371
0 PSLV DEB
1 28850U 01049PC  13290.21575222  .00007490  00000-0  75578-3 0  6541
2 28850 097.6067 286.9967 0032690 088.8189 271.6956 14.90962924502581
0 PSLV DEB
1 28850U 01049PC  13292.22909766  .00008829  00000-0  88793-3 0  6559
2 28850 097.6140 288.9489 0034056 081.1770 279.4264 14.91007872502888
0 PSLV DEB
1 28850U 01049PC  13293.23572747  .00008960  00000-0  90095-3 0  6561
2 28850 097.6119 289.9147 0033454 078.1901 282.3251 14.91027214503038
0 PSLV DEB
1 28850U 01049PC  13295.78584038  .00008878  00000-0  89290-3 0  6573
2 28850 097.6037 292.3556 0031256 067.8882 292.5586 14.91072172503419
